{"type": "FeatureCollection", "features": [ {"type": "Feature", "properties": {"norad_id": 34610, "name": "COSMOS 2251 DEB", "group": "cosmos-2251-debris", "lat": -23.589962914517493, "lon": 78.16602001782705, "alt_km": 1004.8479429647232, "timestamp": "2025-12-19T04:59:48.701548+00:00", "meta": {"OBJECT_NAME": "COSMOS 2251 DEB", "OBJECT_ID": "1993-036WF", "EPOCH": "2025-12-16T19:43:22.866816", "MEAN_MOTION": 14.07083274, "ECCENTRICITY": 0.01805005, "INCLINATION": 74.0182, "RA_OF_ASC_NODE": 255.1605, "ARG_OF_PERICENTER": 24.866, "MEAN_ANOMALY": 336.104, "EPHEMERIS_TYPE": 0, "CLASSIFICATION_TYPE": "U", "NORAD_CAT_ID": 34610, "ELEMENT_SET_NO": 999, "REV_AT_EPOCH": 85617, "BSTAR": 0.0012903668, "MEAN_MOTION_DOT": 2.479e-05, "MEAN_MOTION_DDOT": 0}, "tle": {"line1": "1 34610U 93036WF  25350.82179244  .00002479  00000+0  12904-2 0  9996", "line2": "2 34610  74.0182 255.1605 0180500  24.8660 336.1040 14.07083274856172"}}, "geometry": {"type": "Point", "coordinates": [78.16602001782705, -23.589962914517493]}}, {"type": "Feature", "properties": {"norad_id": 34611, "name": "COSMOS 2251 DEB", "group": "cosmos-2251-debris", "lat": -73.69736794550444, "lon": 10.604853293101284, "alt_km": 682.0431424236158, "timestamp": "2025-12-19T04:59:48.701558+00:00", "meta": {"OBJECT_NAME": "COSMOS 2251 DEB", "OBJECT_ID": "1993-036WG", "EPOCH": "2025-12-18T16:52:50.570112", "MEAN_MOTION": 14.69610983, "ECCENTRICITY": 0.00220343, "INCLINATION": 74.0543, "RA_OF_ASC_NODE": 89.4237, "ARG_OF_PERICENTER": 128.8751, "MEAN_ANOMALY": 354.5786, "EPHEMERIS_TYPE": 0, "CLASSIFICATION_TYPE": "U", "NORAD_CAT_ID": 34611, "ELEMENT_SET_NO": 999, "REV_AT_EPOCH": 88478, "BSTAR": 0.0011381206, "MEAN_MOTION_DOT": 6.766e-05, "MEAN_MOTION_DDOT": 0}, "tle": {"line1": "1 34611U 93036WG  25352.70336308  .00006766  00000+0  11381-2 0  9993", "line2": "2 34611  74.0543  89.4237 0022034 128.8751 354.5786 14.69610983884786"}}, "geometry": {"type": "Point", "coordinates": [10.604853293101284, -73.69736794550444]}}, {"type": "Feature", "properties": {"norad_id": 34613, "name": "COSMOS 2251 DEB", "group": "cosmos-2251-debris", "lat": 69.27149941493141, "lon": -43.726394826482704, "alt_km": 722.130369385829, "timestamp": "2025-12-19T04:59:48.701569+00:00", "meta": {"OBJECT_NAME": "COSMOS 2251 DEB", "OBJECT_ID": "1993-036WJ", "EPOCH": "2025-12-16T00:58:31.243296", "MEAN_MOTION": 14.26454619, "ECCENTRICITY": 0.01102473, "INCLINATION": 73.9638, "RA_OF_ASC_NODE": 272.5587, "ARG_OF_PERICENTER": 103.5153, "MEAN_ANOMALY": 273.8209, "EPHEMERIS_TYPE": 0, "CLASSIFICATION_TYPE": "U", "NORAD_CAT_ID": 34613, "ELEMENT_SET_NO": 999, "REV_AT_EPOCH": 86510, "BSTAR": 0.00095440148, "MEAN_MOTION_DOT": 2.425e-05, "MEAN_MOTION_DDOT": 0}, "tle": {"line1": "1 34613U 93036WJ  25350.04063939  .00002425  00000+0  95440-3 0  9994", "line2": "2 34613  73.9638 272.5587 0110247 103.5153 273.8209 14.26454619865107"}}, "geometry": {"type": "Point", "coordinates": [-43.726394826482704, 69.27149941493141]}}, {"type": "Feature", "properties": {"norad_id": 34614, "name": "COSMOS 2251 DEB", "group": "cosmos-2251-debris", "lat": 32.81534077342684, "lon": 141.50498406247428, "alt_km": 973.7075241749772, "timestamp": "2025-12-19T04:59:48.701580+00:00", "meta": {"OBJECT_NAME": "COSMOS 2251 DEB", "OBJECT_ID": "1993-036WK", "EPOCH": "2025-12-16T00:21:28.707840", "MEAN_MOTION": 14.17601251, "ECCENTRICITY": 0.0198196, "INCLINATION": 73.8837, "RA_OF_ASC_NODE": 337.994, "ARG_OF_PERICENTER": 331.3985, "MEAN_ANOMALY": 83.6306, "EPHEMERIS_TYPE": 0, "CLASSIFICATION_TYPE": "U", "NORAD_CAT_ID": 34614, "ELEMENT_SET_NO": 999, "REV_AT_EPOCH": 84813, "BSTAR": 0.0047337499, "MEAN_MOTION_DOT": 0.00011666, "MEAN_MOTION_DDOT": 0}, "tle": {"line1": "1 34614U 93036WK  25350.01491560  .00011666  00000+0  47337-2 0  9995", "line2": "2 34614  73.8837 337.9940 0198196 331.3985  83.6306 14.17601251848135"}}, "geometry": {"type": "Point", "coordinates": [141.50498406247428, 32.81534077342684]}}, {"type": "Feature", "properties": {"norad_id": 34615, "name": "COSMOS 2251 DEB", "group": "cosmos-2251-debris", "lat": -37.468476501774425, "lon": -88.9321337877319, "alt_km": 1259.6262229510003, "timestamp": "2025-12-19T04:59:48.701590+00:00", "meta": {"OBJECT_NAME": "COSMOS 2251 DEB", "OBJECT_ID": "1993-036WL", "EPOCH": "2025-12-18T06:54:04.948992", "MEAN_MOTION": 13.5220421, "ECCENTRICITY": 0.04007834, "INCLINATION": 74.0049, "RA_OF_ASC_NODE": 285.2433, "ARG_OF_PERICENTER": 191.3049, "MEAN_ANOMALY": 326.0224, "EPHEMERIS_TYPE": 0, "CLASSIFICATION_TYPE": "U", "NORAD_CAT_ID": 34615, "ELEMENT_SET_NO": 999, "REV_AT_EPOCH": 82890, "BSTAR": 6.5275002e-05, "MEAN_MOTION_DOT": 5e-07, "MEAN_MOTION_DDOT": 0}, "tle": {"line1": "1 34615U 93036WL  25352.28755728  .00000050  00000+0  65275-4 0  9994", "line2": "2 34615  74.0049 285.2433 0400783 191.3049 326.0224 13.52204210828907"}}, "geometry": {"type": "Point", "coordinates": [-88.9321337877319, -37.468476501774425]}}, {"type": "Feature", "properties": {"norad_id": 34619, "name": "COSMOS 2251 DEB", "group": "cosmos-2251-debris", "lat": -36.03892297579684, "lon": 175.49396692747817, "alt_km": 633.7844187569881, "timestamp": "2025-12-19T04:59:48.701600+00:00", "meta": {"OBJECT_NAME": "COSMOS 2251 DEB", "OBJECT_ID": "1993-036WQ", "EPOCH": "2025-12-18T14:24:49.076928", "MEAN_MOTION": 14.64658954, "ECCENTRICITY": 0.00947519, "INCLINATION": 74.0432, "RA_OF_ASC_NODE": 188.6767, "ARG_OF_PERICENTER": 282.1844, "MEAN_ANOMALY": 76.8723, "EPHEMERIS_TYPE": 0, "CLASSIFICATION_TYPE": "U", "NORAD_CAT_ID": 34619, "ELEMENT_SET_NO": 999, "REV_AT_EPOCH": 89384, "BSTAR": 0.00015524282, "MEAN_MOTION_DOT": 8.46e-06, "MEAN_MOTION_DDOT": 0}, "tle": {"line1": "1 34619U 93036WQ  25352.60056802  .00000846  00000+0  15524-3 0  9995", "line2": "2 34619  74.0432 188.6767 0094751 282.1844  76.8723 14.64658954893840"}}, "geometry": {"type": "Point", "coordinates": [175.49396692747817, -36.03892297579684]}}, {"type": "Feature", "properties": {"norad_id": 34620, "name": "COSMOS 2251 DEB", "group": "cosmos-2251-debris", "lat": -17.707623895861133, "lon": 32.65085562897127, "alt_km": 691.7261361712854, "timestamp": "2025-12-19T04:59:48.701611+00:00", "meta": {"OBJECT_NAME": "COSMOS 2251 DEB", "OBJECT_ID": "1993-036WR", "EPOCH": "2025-12-17T15:37:43.675680", "MEAN_MOTION": 14.49177124, "ECCENTRICITY": 0.00800634, "INCLINATION": 74.051, "RA_OF_ASC_NODE": 210.3285, "ARG_OF_PERICENTER": 245.6066, "MEAN_ANOMALY": 113.6724, "EPHEMERIS_TYPE": 0, "CLASSIFICATION_TYPE": "U", "NORAD_CAT_ID": 34620, "ELEMENT_SET_NO": 999, "REV_AT_EPOCH": 86898, "BSTAR": 0.001540269, "MEAN_MOTION_DOT": 6.083e-05, "MEAN_MOTION_DDOT": 0}, "tle": {"line1": "1 34620U 93036WR  25351.65119995  .00006083  00000+0  15403-2 0  9998", "line2": "2 34620  74.0510 210.3285 0080063 245.6066 113.6724 14.49177124868984"}}, "geometry": {"type": "Point", "coordinates": [32.65085562897127, -17.707623895861133]}}, {"type": "Feature", "properties": {"norad_id": 34622, "name": "COSMOS 2251 DEB", "group": "cosmos-2251-debris", "lat": -68.41495512277413, "lon": -110.91445978949032, "alt_km": 826.5491715833323, "timestamp": "2025-12-19T04:59:48.701621+00:00", "meta": {"OBJECT_NAME": "COSMOS 2251 DEB", "OBJECT_ID": "1993-036WT", "EPOCH": "2025-12-17T21:31:57.246240", "MEAN_MOTION": 14.22067123, "ECCENTRICITY": 0.01045787, "INCLINATION": 74.0427, "RA_OF_ASC_NODE": 297.7571, "ARG_OF_PERICENTER": 18.9913, "MEAN_ANOMALY": 37.9607, "EPHEMERIS_TYPE": 0, "CLASSIFICATION_TYPE": "U", "NORAD_CAT_ID": 34622, "ELEMENT_SET_NO": 999, "REV_AT_EPOCH": 86533, "BSTAR": 0.00082135127, "MEAN_MOTION_DOT": 1.896e-05, "MEAN_MOTION_DDOT": 0}, "tle": {"line1": "1 34622U 93036WT  25351.89719035  .00001896  00000+0  82135-3 0  9991", "line2": "2 34622  74.0427 297.7571 0104578  18.9913  37.9607 14.22067123865332"}}, "geometry": {"type": "Point", "coordinates": [-110.91445978949032, -68.41495512277413]}}, {"type": "Feature", "properties": {"norad_id": 34626, "name": "COSMOS 2251 DEB", "group": "cosmos-2251-debris", "lat": -17.491383117419495, "lon": 136.48764936665134, "alt_km": 676.2640267013849, "timestamp": "2025-12-19T04:59:48.701631+00:00", "meta": {"OBJECT_NAME": "COSMOS 2251 DEB", "OBJECT_ID": "1993-036WX", "EPOCH": "2025-12-18T23:29:31.492608", "MEAN_MOTION": 14.72269313, "ECCENTRICITY": 0.00268804, "INCLINATION": 74.0483, "RA_OF_ASC_NODE": 311.762, "ARG_OF_PERICENTER": 38.0978, "MEAN_ANOMALY": 24.7285, "EPHEMERIS_TYPE": 0, "CLASSIFICATION_TYPE": "U", "NORAD_CAT_ID": 34626, "ELEMENT_SET_NO": 999, "REV_AT_EPOCH": 89236, "BSTAR": 0.00077481237, "MEAN_MOTION_DOT": 4.893e-05, "MEAN_MOTION_DDOT": 0}, "tle": {"line1": "1 34626U 93036WX  25352.97883672  .00004893  00000+0  77481-3 0  9992", "line2": "2 34626  74.0483 311.7620 0026880  38.0978  24.7285 14.72269313892362"}}, "geometry": {"type": "Point", "coordinates": [136.48764936665134, -17.491383117419495]}}, {"type": "Feature", "properties": {"norad_id": 34634, "name": "COSMOS 2251 DEB", "group": "cosmos-2251-debris", "lat": -20.665117129198663, "lon": 16.534926632966556, "alt_km": 738.846608026056, "timestamp": "2025-12-19T04:59:48.701641+00:00", "meta": {"OBJECT_NAME": "COSMOS 2251 DEB", "OBJECT_ID": "1993-036XF", "EPOCH": "2025-12-18T13:17:53.371680", "MEAN_MOTION": 14.55673568, "ECCENTRICITY": 0.00438596, "INCLINATION": 74.0515, "RA_OF_ASC_NODE": 23.9646, "ARG_OF_PERICENTER": 129.6194, "MEAN_ANOMALY": 22.7895, "EPHEMERIS_TYPE": 0, "CLASSIFICATION_TYPE": "U", "NORAD_CAT_ID": 34634, "ELEMENT_SET_NO": 999, "REV_AT_EPOCH": 88866, "BSTAR": 0.00022055428, "MEAN_MOTION_DOT": 9.47e-06, "MEAN_MOTION_DDOT": 0}, "tle": {"line1": "1 34634U 93036XF  25352.55408995  .00000947  00000+0  22055-3 0  9999", "line2": "2 34634  74.0515  23.9646 0043859 129.6194  22.7895 14.55673568888664"}}, "geometry": {"type": "Point", "coordinates": [16.534926632966556, -20.665117129198663]}}]}